ONEWEB-0168             
1 48068U 21025AC  24002.91269425  .00000185  00000+0  47259-3 0  9995
2 48068  87.9010 138.5831 0001474  97.1878 262.9418 13.13468265135907
ONEWEB-0173             
1 48069U 21025AD  24002.90473878  .00000326  00000+0  85854-3 0  9994
2 48069  87.9008 138.5958 0001970  94.2320 265.9034 13.13471802136141
ONEWEB-0171             
1 48070U 21025AE  24002.86504959 -.00000330  00000+0 -93797-3 0  9998
2 48070  87.8998 138.6385 0001691 101.2505 258.8814 13.13468182135951
ONEWEB-0172             
1 48071U 21025AF  24002.92061437  .00000027  00000+0  40258-4 0  9991
2 48071  87.9000 138.5939 0001705 101.1294 259.0027 13.13470498136853
ONEWEB-0174             
1 48072U 21025AG  24002.90316146  .00000301  00000+0  79025-3 0  9998
2 48072  87.8995 138.6126 0001352  99.3167 260.8115 13.13469275136174
ONEWEB-0175             
1 48073U 21025AH  24002.85553045 -.00000278  00000+0 -79519-3 0  9997
2 48073  87.9000 138.6193 0001833 112.0941 248.0383 13.13468437135829
ONEWEB-0177             
1 48074U 21025AJ  24002.86822357 -.00000188  00000+0 -55015-3 0  9999
2 48074  87.9001 138.6223 0001755  87.2252 272.9078 13.13468996136015
ONEWEB-0178             
1 48075U 21025AK  24002.88582007  .00000081  00000+0  18692-3 0  9997
2 48075  87.9007 138.6251 0001682  93.8141 266.3180 13.13473466136066
